{
    "links": {
        "self": "http://www.neowsapp.com/rest/v1/neo/54087661?api_key=iIulBulltgU6a56xZRHN4H3l9WmuAYTsLGpBGhQ2"
    },
    "id": "54087661",
    "neo_reference_id": "54087661",
    "name": "(2020 VZ1)",
    "designation": "2020 VZ1",
    "nasa_jpl_url": "http://ssd.jpl.nasa.gov/sbdb.cgi?sstr=54087661",
    "absolute_magnitude_h": 25.323,
    "estimated_diameter": {
        "kilometers": {
            "estimated_diameter_min": 0.0229063017,
            "estimated_diameter_max": 0.0512200477
        },
        "meters": {
            "estimated_diameter_min": 22.9063017038,
            "estimated_diameter_max": 51.2200477229
        },
        "miles": {
            "estimated_diameter_min": 0.0142333116,
            "estimated_diameter_max": 0.0318266523
        },
        "feet": {
            "estimated_diameter_min": 75.151910882,
            "estimated_diameter_max": 168.0447813712
        }
    },
    "is_potentially_hazardous_asteroid": false,
    "close_approach_data": [
        {
            "close_approach_date": "1907-11-04",
            "close_approach_date_full": "1907-Nov-04 11:14",
            "epoch_date_close_approach": -1961585160000,
            "relative_velocity": {
                "kilometers_per_second": "7.9930201923",
                "kilometers_per_hour": "28774.8726921056",
                "miles_per_hour": "17879.5868680475"
            },
            "miss_distance": {
                "astronomical": "0.0924056708",
                "lunar": "35.9458059412",
                "kilometers": "13823691.527601196",
                "miles": "8589643.6081846648"
            },
            "orbiting_body": "Earth"
        },
        {
            "close_approach_date": "2020-11-15",
            "close_approach_date_full": "2020-Nov-15 06:21",
            "epoch_date_close_approach": 1605421260000,
            "relative_velocity": {
                "kilometers_per_second": "7.0206702294",
                "kilometers_per_hour": "25274.4128258371",
                "miles_per_hour": "15704.537236143"
            },
            "miss_distance": {
                "astronomical": "0.0758567713",
                "lunar": "29.5082840357",
                "kilometers": "11348011.411557131",
                "miles": "7051327.3167491678"
            },
            "orbiting_body": "Earth"
        },
        {
            "close_approach_date": "2149-11-21",
            "close_approach_date_full": "2149-Nov-21 23:44",
            "epoch_date_close_approach": 5676824640000,
            "relative_velocity": {
                "kilometers_per_second": "7.0525573316",
                "kilometers_per_hour": "25389.2063937387",
                "miles_per_hour": "15775.8654950428"
            },
            "miss_distance": {
                "astronomical": "0.0840375307",
                "lunar": "32.6905994423",
                "kilometers": "12571835.592779609",
                "miles": "7811776.4004682442"
            },
            "orbiting_body": "Earth"
        }
    ],
    "orbital_data": {
        "orbit_id": "2",
        "orbit_determination_date": "2020-11-22 05:19:52",
        "first_observation_date": "2020-10-14",
        "last_observation_date": "2020-11-21",
        "data_arc_in_days": 38,
        "observations_used": 32,
        "orbit_uncertainty": "6",
        "minimum_orbit_intersection": ".0752426",
        "jupiter_tisserand_invariant": "3.522",
        "epoch_osculation": "2459000.5",
        "eccentricity": ".5060936764391734",
        "semi_major_axis": "2.145803297140205",
        "inclination": "8.066624702191264",
        "ascending_node_longitude": "44.76136774726494",
        "orbital_period": "1148.109443853292",
        "perihelion_distance": "1.059825817575219",
        "perihelion_argument": "13.41251606474833",
        "aphelion_distance": "3.231780776705192",
        "perihelion_time": "2459173.928153008639",
        "mean_anomaly": "305.62004918837",
        "mean_motion": ".3135589572295178",
        "equinox": "J2000",
        "orbit_class": {
            "orbit_class_type": "AMO",
            "orbit_class_description": "Near-Earth asteroid orbits similar to that of 1221 Amor",
            "orbit_class_range": "1.017 AU < q (perihelion) < 1.3 AU"
        }
    },
    "is_sentry_object": false
}